[{"OBJECT_NAME":"STARLINK-36910","OBJECT_ID":"2026-039V","EPOCH":"2026-03-12T22:00:01.999584","MEAN_MOTION":15.81916165,"ECCENTRICITY":0.00014986,"INCLINATION":42.9997,"RA_OF_ASC_NODE":34.9666,"ARG_OF_PERICENTER":266.1152,"MEAN_ANOMALY":257.0688,"EPHEMERIS_TYPE":0,"CLASSIFICATION_TYPE":"U","NORAD_CAT_ID":68005,"ELEMENT_SET_NO":999,"REV_AT_EPOCH":339,"BSTAR":0.0009616996,"MEAN_MOTION_DOT":0.00205889,"MEAN_MOTION_DDOT":0},{"OBJECT_NAME":"STARLINK-36889","OBJECT_ID":"2026-039W","EPOCH":"2026-03-12T22:00:01.999584","MEAN_MOTION":15.81940727,"ECCENTRICITY":0.00018718,"INCLINATION":42.9997,"RA_OF_ASC_NODE":34.9437,"ARG_OF_PERICENTER":240.1365,"MEAN_ANOMALY":291.5832,"EPHEMERIS_TYPE":0,"CLASSIFICATION_TYPE":"U","NORAD_CAT_ID":68006,"ELEMENT_SET_NO":999,"REV_AT_EPOCH":339,"BSTAR":0.00059347728,"MEAN_MOTION_DOT":0.0012582,"MEAN_MOTION_DDOT":0},{"OBJECT_NAME":"STARLINK-36592","OBJECT_ID":"2026-039X","EPOCH":"2026-03-12T22:00:01.999584","MEAN_MOTION":15.81831471,"ECCENTRICITY":9.214e-5,"INCLINATION":42.9996,"RA_OF_ASC_NODE":34.9339,"ARG_OF_PERICENTER":258.1992,"MEAN_ANOMALY":277.8848,"EPHEMERIS_TYPE":0,"CLASSIFICATION_TYPE":"U","NORAD_CAT_ID":68007,"ELEMENT_SET_NO":999,"REV_AT_EPOCH":339,"BSTAR":0.0011231115,"MEAN_MOTION_DOT":0.00240559,"MEAN_MOTION_DDOT":0},{"OBJECT_NAME":"STARLINK-36911","OBJECT_ID":"2026-039Y","EPOCH":"2026-03-12T22:00:01.999584","MEAN_MOTION":15.81917198,"ECCENTRICITY":0.00014069,"INCLINATION":42.9992,"RA_OF_ASC_NODE":34.9238,"ARG_OF_PERICENTER":243.7528,"MEAN_ANOMALY":296.5246,"EPHEMERIS_TYPE":0,"CLASSIFICATION_TYPE":"U","NORAD_CAT_ID":68008,"ELEMENT_SET_NO":999,"REV_AT_EPOCH":339,"BSTAR":0.00092457097,"MEAN_MOTION_DOT":0.00197741,"MEAN_MOTION_DDOT":0},{"OBJECT_NAME":"STARLINK-36956","OBJECT_ID":"2026-039Z","EPOCH":"2026-03-12T22:00:01.999584","MEAN_MOTION":15.81919224,"ECCENTRICITY":0.0001822,"INCLINATION":42.9998,"RA_OF_ASC_NODE":34.9121,"ARG_OF_PERICENTER":238.7855,"MEAN_ANOMALY":305.7659,"EPHEMERIS_TYPE":0,"CLASSIFICATION_TYPE":"U","NORAD_CAT_ID":68009,"ELEMENT_SET_NO":999,"REV_AT_EPOCH":339,"BSTAR":0.00092831593,"MEAN_MOTION_DOT":0.00198585,"MEAN_MOTION_DDOT":0},{"OBJECT_NAME":"STARLINK-36953","OBJECT_ID":"2026-039AA","EPOCH":"2026-03-12T22:00:01.999584","MEAN_MOTION":15.81926154,"ECCENTRICITY":0.00015692,"INCLINATION":42.9996,"RA_OF_ASC_NODE":34.8898,"ARG_OF_PERICENTER":269.6494,"MEAN_ANOMALY":283.4512,"EPHEMERIS_TYPE":0,"CLASSIFICATION_TYPE":"U","NORAD_CAT_ID":68010,"ELEMENT_SET_NO":999,"REV_AT_EPOCH":339,"BSTAR":0.00081657765,"MEAN_MOTION_DOT":0.00174176,"MEAN_MOTION_DDOT":0},{"OBJECT_NAME":"STARLINK-36991","OBJECT_ID":"2026-039AB","EPOCH":"2026-03-12T22:00:01.999584","MEAN_MOTION":15.74990739,"ECCENTRICITY":0.00012098,"INCLINATION":42.9995,"RA_OF_ASC_NODE":34.9319,"ARG_OF_PERICENTER":257.5217,"MEAN_ANOMALY":278.5222,"EPHEMERIS_TYPE":0,"CLASSIFICATION_TYPE":"U","NORAD_CAT_ID":68011,"ELEMENT_SET_NO":999,"REV_AT_EPOCH":339,"BSTAR":-0.014336848,"MEAN_MOTION_DOT":-0.01909475,"MEAN_MOTION_DDOT":0},{"OBJECT_NAME":"STARLINK-36936","OBJECT_ID":"2026-039AC","EPOCH":"2026-03-12T22:00:01.999584","MEAN_MOTION":15.81936939,"ECCENTRICITY":0.00015757,"INCLINATION":42.9996,"RA_OF_ASC_NODE":34.8573,"ARG_OF_PERICENTER":273.1378,"MEAN_ANOMALY":292.7682,"EPHEMERIS_TYPE":0,"CLASSIFICATION_TYPE":"U","NORAD_CAT_ID":68012,"ELEMENT_SET_NO":999,"REV_AT_EPOCH":339,"BSTAR":0.00080356788,"MEAN_MOTION_DOT":0.00171424,"MEAN_MOTION_DDOT":0},{"OBJECT_NAME":"STARLINK-36967","OBJECT_ID":"2026-039AD","EPOCH":"2026-03-12T22:00:01.999584","MEAN_MOTION":15.76414465,"ECCENTRICITY":0.00012259,"INCLINATION":42.9994,"RA_OF_ASC_NODE":34.9336,"ARG_OF_PERICENTER":263.3826,"MEAN_ANOMALY":271.852,"EPHEMERIS_TYPE":0,"CLASSIFICATION_TYPE":"U","NORAD_CAT_ID":68013,"ELEMENT_SET_NO":999,"REV_AT_EPOCH":339,"BSTAR":-0.013505215,"MEAN_MOTION_DOT":-0.01915522,"MEAN_MOTION_DDOT":0},{"OBJECT_NAME":"STARLINK-36985","OBJECT_ID":"2026-039AE","EPOCH":"2026-03-12T22:00:01.999584","MEAN_MOTION":15.81890958,"ECCENTRICITY":0.00014255,"INCLINATION":42.9993,"RA_OF_ASC_NODE":34.8687,"ARG_OF_PERICENTER":250.7165,"MEAN_ANOMALY":310.9299,"EPHEMERIS_TYPE":0,"CLASSIFICATION_TYPE":"U","NORAD_CAT_ID":68014,"ELEMENT_SET_NO":999,"REV_AT_EPOCH":339,"BSTAR":0.0011671307,"MEAN_MOTION_DOT":0.00251009,"MEAN_MOTION_DDOT":0},{"OBJECT_NAME":"STARLINK-36335","OBJECT_ID":"2026-040A","EPOCH":"2026-03-12T22:00:01.999584","MEAN_MOTION":15.98211368,"ECCENTRICITY":9.962e-5,"INCLINATION":97.2734,"RA_OF_ASC_NODE":20.3785,"ARG_OF_PERICENTER":89.9145,"MEAN_ANOMALY":264.1507,"EPHEMERIS_TYPE":0,"CLASSIFICATION_TYPE":"U","NORAD_CAT_ID":68015,"ELEMENT_SET_NO":999,"REV_AT_EPOCH":289,"BSTAR":-0.0030495622,"MEAN_MOTION_DOT":-0.01389506,"MEAN_MOTION_DDOT":0.00059071026},{"OBJECT_NAME":"STARLINK-36923","OBJECT_ID":"2026-040B","EPOCH":"2026-03-12T18:59:22.519968","MEAN_MOTION":15.99091576,"ECCENTRICITY":0.00015946,"INCLINATION":97.2747,"RA_OF_ASC_NODE":20.2455,"ARG_OF_PERICENTER":158.7359,"MEAN_ANOMALY":201.3986,"EPHEMERIS_TYPE":0,"CLASSIFICATION_TYPE":"U","NORAD_CAT_ID":68016,"ELEMENT_SET_NO":999,"REV_AT_EPOCH":183,"BSTAR":-0.00037758617,"MEAN_MOTION_DOT":-0.00182586,"MEAN_MOTION_DDOT":1.4451554e-5},{"OBJECT_NAME":"STARLINK-36568","OBJECT_ID":"2026-040C","EPOCH":"2026-03-12T22:00:01.999584","MEAN_MOTION":15.9844074,"ECCENTRICITY":9.382e-5,"INCLINATION":97.2735,"RA_OF_ASC_NODE":20.3832,"ARG_OF_PERICENTER":94.2085,"MEAN_ANOMALY":270.7316,"EPHEMERIS_TYPE":0,"CLASSIFICATION_TYPE":"U","NORAD_CAT_ID":68017,"ELEMENT_SET_NO":999,"REV_AT_EPOCH":294,"BSTAR":-0.0030405059,"MEAN_MOTION_DOT":-0.01402914,"MEAN_MOTION_DDOT":0.00060281348},{"OBJECT_NAME":"STARLINK-36930","OBJECT_ID":"2026-040D","EPOCH":"2026-03-12T22:00:01.999584","MEAN_MOTION":15.98289454,"ECCENTRICITY":9.777e-5,"INCLINATION":97.2733,"RA_OF_ASC_NODE":20.3803,"ARG_OF_PERICENTER":93.8239,"MEAN_ANOMALY":263.9394,"EPHEMERIS_TYPE":0,"CLASSIFICATION_TYPE":"U","NORAD_CAT_ID":68018,"ELEMENT_SET_NO":999,"REV_AT_EPOCH":294,"BSTAR":-0.0030554681,"MEAN_MOTION_DOT":-0.0139812,"MEAN_MOTION_DDOT":0.00059801617},{"OBJECT_NAME":"STARLINK-36921","OBJECT_ID":"2026-040E","EPOCH":"2026-03-12T22:00:01.999584","MEAN_MOTION":15.98594638,"ECCENTRICITY":0.00010003,"INCLINATION":97.2742,"RA_OF_ASC_NODE":20.3863,"ARG_OF_PERICENTER":96.7651,"MEAN_ANOMALY":274.5369,"EPHEMERIS_TYPE":0,"CLASSIFICATION_TYPE":"U","NORAD_CAT_ID":68019,"ELEMENT_SET_NO":999,"REV_AT_EPOCH":294,"BSTAR":-0.0030102869,"MEAN_MOTION_DOT":-0.01400907,"MEAN_MOTION_DDOT":0.00060223099},{"OBJECT_NAME":"STARLINK-36928","OBJECT_ID":"2026-040F","EPOCH":"2026-03-12T22:00:01.999584","MEAN_MOTION":15.9852632,"ECCENTRICITY":9.871e-5,"INCLINATION":97.2735,"RA_OF_ASC_NODE":20.3839,"ARG_OF_PERICENTER":93.3972,"MEAN_ANOMALY":274.3382,"EPHEMERIS_TYPE":0,"CLASSIFICATION_TYPE":"U","NORAD_CAT_ID":68020,"ELEMENT_SET_NO":999,"REV_AT_EPOCH":294,"BSTAR":-0.0030410134,"MEAN_MOTION_DOT":-0.01409751,"MEAN_MOTION_DDOT":0.00060883507},{"OBJECT_NAME":"STARLINK-36858","OBJECT_ID":"2026-040G","EPOCH":"2026-03-13T00:43:07.006080","MEAN_MOTION":16.09881502,"ECCENTRICITY":0.0002168,"INCLINATION":97.2742,"RA_OF_ASC_NODE":20.5325,"ARG_OF_PERICENTER":186.949,"MEAN_ANOMALY":173.1764,"EPHEMERIS_TYPE":0,"CLASSIFICATION_TYPE":"U","NORAD_CAT_ID":68021,"ELEMENT_SET_NO":999,"REV_AT_EPOCH":187,"BSTAR":0.0013826,"MEAN_MOTION_DOT":0.01251551,"MEAN_MOTION_DDOT":0.0010094},{"OBJECT_NAME":"STARLINK-36916","OBJECT_ID":"2026-040H","EPOCH":"2026-03-12T18:55:12.565632","MEAN_MOTION":15.993823,"ECCENTRICITY":7.49e-5,"INCLINATION":97.2751,"RA_OF_ASC_NODE":20.2495,"ARG_OF_PERICENTER":100.5098,"MEAN_ANOMALY":259.6265,"EPHEMERIS_TYPE":0,"CLASSIFICATION_TYPE":"U","NORAD_CAT_ID":68022,"ELEMENT_SET_NO":999,"REV_AT_EPOCH":183,"BSTAR":-0.001025109,"MEAN_MOTION_DOT":-0.00501996,"MEAN_MOTION_DDOT":9.0068597e-5},{"OBJECT_NAME":"STARLINK-36871","OBJECT_ID":"2026-040J","EPOCH":"2026-03-12T20:24:25.278048","MEAN_MOTION":15.99233502,"ECCENTRICITY":0.00014096,"INCLINATION":97.275,"RA_OF_ASC_NODE":20.3178,"ARG_OF_PERICENTER":309.0673,"MEAN_ANOMALY":51.048,"EPHEMERIS_TYPE":0,"CLASSIFICATION_TYPE":"U","NORAD_CAT_ID":68023,"ELEMENT_SET_NO":999,"REV_AT_EPOCH":184,"BSTAR":-0.00083781366,"MEAN_MOTION_DOT":-0.00407204,"MEAN_MOTION_DDOT":6.0856806e-5},{"OBJECT_NAME":"STARLINK-36891","OBJECT_ID":"2026-040K","EPOCH":"2026-03-12T20:23:21.109632","MEAN_MOTION":15.99385415,"ECCENTRICITY":7.4e-5,"INCLINATION":97.2745,"RA_OF_ASC_NODE":20.3187,"ARG_OF_PERICENTER":337.7241,"MEAN_ANOMALY":22.4005,"EPHEMERIS_TYPE":0,"CLASSIFICATION_TYPE":"U","NORAD_CAT_ID":68024,"ELEMENT_SET_NO":999,"REV_AT_EPOCH":184,"BSTAR":-0.00097117905,"MEAN_MOTION_DOT":-0.00475767,"MEAN_MOTION_DDOT":8.1484274e-5},{"OBJECT_NAME":"STARLINK-36378","OBJECT_ID":"2026-040L","EPOCH":"2026-03-12T18:51:19.064448","MEAN_MOTION":15.9986958,"ECCENTRICITY":0.00018676,"INCLINATION":97.2776,"RA_OF_ASC_NODE":20.2532,"ARG_OF_PERICENTER":159.3078,"MEAN_ANOMALY":200.8276,"EPHEMERIS_TYPE":0,"CLASSIFICATION_TYPE":"U","NORAD_CAT_ID":68025,"ELEMENT_SET_NO":999,"REV_AT_EPOCH":183,"BSTAR":-0.00030024344,"MEAN_MOTION_DOT":-0.00151821,"MEAN_MOTION_DDOT":1.0809632e-5},{"OBJECT_NAME":"STARLINK-36884","OBJECT_ID":"2026-040M","EPOCH":"2026-03-12T18:52:15.410208","MEAN_MOTION":15.99777063,"ECCENTRICITY":0.00013979,"INCLINATION":97.276,"RA_OF_ASC_NODE":20.252,"ARG_OF_PERICENTER":147.3459,"MEAN_ANOMALY":212.7906,"EPHEMERIS_TYPE":0,"CLASSIFICATION_TYPE":"U","NORAD_CAT_ID":68026,"ELEMENT_SET_NO":999,"REV_AT_EPOCH":183,"BSTAR":-0.00041836566,"MEAN_MOTION_DOT":-0.0021013,"MEAN_MOTION_DDOT":1.8486613e-5},{"OBJECT_NAME":"STARLINK-36940","OBJECT_ID":"2026-040N","EPOCH":"2026-03-12T20:04:41.411424","MEAN_MOTION":16.00830715,"ECCENTRICITY":3.814e-5,"INCLINATION":97.2786,"RA_OF_ASC_NODE":20.336,"ARG_OF_PERICENTER":196.1544,"MEAN_ANOMALY":163.9723,"EPHEMERIS_TYPE":0,"CLASSIFICATION_TYPE":"U","NORAD_CAT_ID":68027,"ELEMENT_SET_NO":999,"REV_AT_EPOCH":184,"BSTAR":-0.00039380058,"MEAN_MOTION_DOT":-0.00209981,"MEAN_MOTION_DDOT":1.8688639e-5}]
